LEMUR-2-GUSTAVO         
1 43885U 18111K   23012.99752100  .00011174  00000+0  86326-3 0  9992
2 43885  97.6576 282.9147 0014256 311.7974  48.2031 15.01619139219199
LEMUR-2-ZO              
1 43886U 18111L   23012.71430461  .00009487  00000+0  73463-3 0  9998
2 43886  97.6402 282.8917 0014558 337.2825  22.7753 15.01571677221167
LEMUR-2-NATALIEMURRAY   
1 43887U 18111M   23012.72247514  .00010185  00000+0  78395-3 0  9991
2 43887  97.6557 283.3080 0009048 276.6385  83.3810 15.01831159221184
LEMUR-2-SARAHBETTYBOO   
1 43888U 18111N   23012.53634850  .00011104  00000+0  84809-3 0  9993
2 43888  97.6896 283.6783 0014036  11.1808 348.9725 15.02060554221166
LEMUR-2-DAISY-HARPER    
1 43889U 18111P   23012.46518265  .00011614  00000+0  88713-3 0  9991
2 43889  97.6808 283.7434 0012312  12.1289 348.0229 15.02060314221156
GRUS-1A                 
1 43890U 18111Q   23013.06243941  .00002023  00000+0  19552-3 0  9995
2 43890  97.6180 269.2888 0005651  49.8026 310.3713 14.93874644220558
2018-111R               
1 43891U 18111R   23013.12074847  .00003102  00000+0  12614-3 0  9991
2 43891  97.1518 251.5170 0027197  73.4166  77.8060 15.24917107225017
ZACUBE-2                
1 43907U 18111AH  23013.20033716  .00018018  00000+0  58277-3 0  9995
2 43907  97.1624 257.1841 0019695  54.6149  63.5485 15.31924947225354
LUME 1                  
1 43908U 18111AJ  23012.63826877  .00025172  00000+0  72020-3 0  9991
2 43908  97.1636 259.1448 0017749  48.5614 311.7152 15.35782893225434
YUNHAI 2-01             
1 43909U 18112A   23013.05072764  .00000153  00000+0  12607-3 0  9995
2 43909  50.0136 310.2897 0000084   8.2006 351.8923 14.27868375212287
YUNHAI 2-02             
1 43910U 18112B   23013.49851784  .00000239  00000+0  16065-3 0  9999
2 43910  50.0143  11.9775 0004891 152.4977 207.6208 14.27866657211460
YUNHAI 2-03             
1 43911U 18112C   23013.45034046  .00000223  00000+0  15431-3 0  9999
2 43911  50.0142 251.6433 0001389  52.8920 307.2122 14.27862073213130
YUNHAI 2-04             
1 43912U 18112D   23013.07843185  .00000163  00000+0  13010-3 0  9994
2 43912  50.0113 193.4127 0015180 275.3122  84.6072 14.27862365208747
YUNHAI 2-05             
1 43913U 18112E   23012.88762600  .00000386  00000+0  21944-3 0  9997
2 43913  50.0103  73.8097 0005387 289.2789  70.7531 14.27862560210527
HONGYAN 1 (CHONGQING)   
1 43914U 18112F   23013.10260334 -.00000071  00000+0  10000-3 0  9994
2 43914  50.0078 158.2850 0006620  49.5050 310.6391 13.43721386198424
YUNHAI 2-06             
1 43915U 18112G   23013.04991992  .00000259  00000+0  16869-3 0  9995
2 43915  50.0114 133.5934 0007221 254.6832 105.3288 14.27860539209648
CHINASAT 2D (ZX 2D)     
1 43920U 19001A   23012.44133208 -.00000320  00000+0  00000+0 0  9996
2 43920   0.0385 144.2595 0000864 193.1359  63.1016  1.00266940 41522
IRIDIUM 180             
1 43922U 19002A   23012.90734474  .00000463  00000+0  15835-3 0  9995
2 43922  86.4002 156.5591 0001613  87.2226 272.9154 14.34222463209644
IRIDIUM 176             
1 43923U 19002B   23013.41722409  .00001738  00000+0  27187-3 0  9997
2 43923  86.6133 156.3872 0002223  91.2494 268.8978 14.72239658215227
IRIDIUM 168             
1 43924U 19002C   23012.90100416  .00000464  00000+0  15878-3 0  9998
2 43924  86.4004 156.6036 0001777  94.7057 265.4342 14.34219575209623
IRIDIUM 173             
1 43925U 19002D   23012.88832037  .00000463  00000+0  15819-3 0  9991
2 43925  86.4001 156.5490 0001781  91.9987 268.1413 14.34220061209609
IRIDIUM 169             
1 43926U 19002E   23012.73520915  .00000248  00000+0  74643-4 0  9997
2 43926  86.4249 188.1654 0005587 127.6970 232.4736 14.38603788210300
IRIDIUM 172             
1 43927U 19002F   23012.67267113  .00000662  00000+0  22933-3 0  9993
2 43927  86.4003 156.6433 0001678  89.6035 270.5353 14.34216905209583
IRIDIUM 175             
1 43928U 19002G   23012.93527514  .00000889  00000+0  13716-3 0  9997
2 43928  86.6138 156.4247 0002225  93.3426 266.8045 14.72238372215140
IRIDIUM 171             
1 43929U 19002H   23013.14202539  .00000448  00000+0  15306-3 0  9997
2 43929  86.4012 156.6146 0001734  95.1002 265.0392 14.34219431209641
IRIDIUM 170             
1 43930U 19002J   23013.42339969  .00001743  00000+0  27254-3 0  9992
2 43930  86.6139 156.3899 0002133  91.5213 268.6248 14.72239855215230
IRIDIUM 167             
1 43931U 19002K   23012.92637069  .00000469  00000+0  16040-3 0  9994
2 43931  86.4002 156.5486 0001634  89.5507 270.5876 14.34222074209617
RAPIS-1                 
1 43932U 19003A   23012.99839634  .00015862  00000+0  87994-3 0  9994
2 43932  97.1781  14.9363 0005251  82.9059 277.2771 15.13826791219848
RISESAT                 
1 43934U 19003C   23013.13789106  .00120296  00000+0  23376-2 0  9992
2 43934  97.1114  40.1859 0010475 136.0543 306.7989 15.47121434221812
MICRODRAGON             
1 43935U 19003D   23012.83759727  .00012794  00000+0  45609-3 0  9992
2 43935  97.1191  38.6481 0016737 144.4777 215.7581 15.28898569221658
NEXUS (FO-99)           
1 43937U 19003F   23012.82982946  .00031378  00000+0  84882-3 0  9999
2 43937  97.1091  43.5836 0019084 119.0109 241.3052 15.37458758222069
ALE-1                   
1 43938U 19003G   23012.55104356  .00034500  00000+0  43882-3 0  9996
2 43938  97.1115  55.4172 0012043  87.8178 272.4458 15.59211503222725
AOBA VELOX-IV           
1 43940U 19003J   23012.85281501  .00122495  00000+0  18732-2 0  9996
2 43940  97.1050  49.1314 0013374 100.2431 260.0332 15.53863308222436
JILIN-01-09             
1 43943U 19005B   23013.56499025  .00005883  00000+0  31675-3 0  9995
2 43943  97.4996 110.0904 0012160 324.6805  94.3518 15.15148550219683
XIAOXIANG 3             
1 43944U 19005C   23013.21235034  .00024746  00000+0  10289-2 0  9992
2 43944  97.5012 113.4665 0008908 308.0686 137.9320 15.23743971219865
JILIN-01-10             
1 43946U 19005E   23013.54289036  .00005772  00000+0  31039-3 0  9996
2 43946  97.4987 110.1132 0017780 314.8897 171.2806 15.15125598219610
HELLAS-SAT 4 & SGS-1    
1 44034U 19007A   23012.13729970  .00000170  00000+0  00000+0 0  9994
2 44034   0.0676 124.7238 0003448  59.0661  15.9658  1.00272971 14805
GSAT-31                 
1 44035U 19007B   23011.31160659  .00000141  00000+0  00000+0 0  9995
2 44035   0.0430 247.8602 0005539  26.8253 355.9387  1.00275326 14418
2018-092C               
1 44041U 18092C   23012.65871630  .00036783  00000+0  56171-3 0  9996
2 44041  51.6349 117.5492 0001627 159.4155 200.6961 15.54059658221083
2018-092D               
1 44042U 18092D   23012.66682783  .00040236  00000+0  61132-3 0  9998
2 44042  51.6369 119.0622 0001791 163.5471 196.5583 15.54157289234027
EGYPTSAT-A (MISRSAT-A)  
1 44047U 19008A   23013.18164104  .00000881  00000+0  14710-3 0  9993
2 44047  98.0172  79.8981 0001296  97.6665 262.4695 14.72335959209167
NUSANTARA SATU          
1 44048U 19009A   23011.36870656 -.00000219  00000+0  00000+0 0  9998
2 44048   0.0352 132.2848 0000913  48.2921 208.7650  1.00270998 14198
ONEWEB-0012             
1 44057U 19010A   23012.58273181  .00000100  00000+0  22714-3 0  9993
2 44057  87.9206 118.0144 0002699  89.6831 270.4610 13.16596377186872
ONEWEB-0010             
1 44058U 19010B   23012.53206953  .00000085  00000+0  18986-3 0  9990
2 44058  87.9228 118.0233 0001834  78.8583 281.2754 13.16595414186915
ONEWEB-0008             
1 44059U 19010C   23012.55739728 -.00000017  00000+0 -77191-4 0  9995
2 44059  87.9082 118.0092 0001865 119.0165 241.1153 13.16594388187036
ONEWEB-0007             
1 44060U 19010D   23013.11965731  .00000189  00000+0  46868-3 0  9999
2 44060  87.9211 148.2332 0002033  99.7256 260.4104 13.15550730186926
ONEWEB-0006             
1 44061U 19010E   23012.80277659  .00000052  00000+0  10539-3 0  9995
2 44061  87.9012 148.3585 0001725  89.5836 270.5492 13.15547743186893
ONEWEB-0011             
1 44062U 19010F   23013.39853984 -.00000085  00000+0 -26051-3 0  9996
2 44062  87.8997 148.2613 0001808 107.8960 252.2368 13.15551289186990
S5                      
1 44065U 19009D   23011.74040049 -.00000043  00000+0  00000+0 0  9999
2 44065   3.3508  85.3630 0002015  73.1638 310.8557  0.99334605 14004
CHINASAT 6C (ZX 6C)     
1 44067U 19012A   23013.01498635 -.00000318  00000+0  00000+0 0  9990
2 44067   0.0386 251.0761 0004625  45.2288 311.3435  1.00270892 14181
WGS 10 (USA 291)        
1 44071U 19014A   23012.49894815  .00000065  00000+0  00000+0 0  9996
2 44071   0.0212  91.2892 0000201 235.9682  24.3923  1.00271027 14077
PRISMA                  
1 44072U 19015A   23013.49892236  .00000655  00000+0  85660-4 0  9999
2 44072  97.8663  90.2003 0001336  83.3319 276.8050 14.83690185206609
TIANLIAN 2-01           
1 44076U 19017A   23012.87137275 -.00000117  00000+0  00000+0 0  9995
2 44076   0.1115  95.3041 0031051  65.0851 345.3438  1.00273978 14112
EMISAT                  
1 44078U 19018A   23013.43745612  .00000309  00000+0  10371-3 0  9999
2 44078  98.4118  76.1053 0019395  40.0318 320.2306 14.43695844199587
FLOCK 4A-2              
1 44080U 19018C   23013.50155414  .00043306  00000+0  98987-3 0  9998
2 44080  97.2752  76.8711 0008574  72.4361 287.7823 15.42676644210945
ASTROCAST 0.2           
1 44083U 19018F   23013.12369018  .00035456  00000+0  10994-2 0  9994
2 44083  97.2938  73.4251 0008914  93.9750 266.2512 15.33292974210536
LEMUR-2-JOHANLORAN      
1 44084U 19018G   23013.16368111  .00176556  00000+0  21729-2 0  9997
2 44084  97.2868  80.7800 0005413  64.0790 296.1024 15.59631715211139
LEMUR-2-BEAUDACIOUS     
1 44085U 19018H   23012.61430658  .00053558  00000+0  12058-2 0  9994
2 44085  97.2846  76.8747 0009276  81.5094 278.7205 15.43072542210848
LEMUR-2-ELHAM           
1 44086U 19018J   23013.50397139  .00079551  00000+0  14760-2 0  9993
2 44086  97.2935  80.1157 0007669  65.4782 294.7267 15.48642754211109
